#aV2021  9 23  0  0  0.00000000     288 DD+AD WGS84 FIT  NGA
## 2176 345600.00000000   300.00000000 59480 0.0000000000000
+   32     1  2  3  4  5  6  7  8  9 10 11 12 13 14 15 16 17
+         18 19 20 21 22 23 24 25 26 27 28 29 30 31 32  0  0
+          0  0  0  0  0  0  0  0  0  0  0  0  0  0  0  0  0
+          0  0  0  0  0  0  0  0  0  0  0  0  0  0  0  0  0
+          0  0  0  0  0  0  0  0  0  0  0  0  0  0  0  0  0
++         2  2  2  2  2  2  2  2  2  2  2  2  2  2  2  2  2
++         2  2  2  2  2  2  2  2  2  2  2  2  2  2  2  0  0
++         0  0  0  0  0  0  0  0  0  0  0  0  0  0  0  0  0
++         0  0  0  0  0  0  0  0  0  0  0  0  0  0  0  0  0
++         0  0  0  0  0  0  0  0  0  0  0  0  0  0  0  0  0
%c cc cc ccc ccc cccc cccc cccc cccc ccccc ccccc ccccc ccccc
%c cc cc ccc ccc cccc cccc cccc cccc ccccc ccccc ccccc ccccc
%f  0.0000000  0.000000000  0.00000000000  0.000000000000000
%f  0.0000000  0.000000000  0.00000000000  0.000000000000000
%i    0    0    0    0      0      0      0      0         0
%i    0    0    0    0      0      0      0      0         0
/*      NGA, ST. LOUIS,MO.                                  
/*   EPHEMERIS COMPUTED FROM 2 DAYS OF DATA                 
/*   EPOCHA v7 SMOOTHER                                     
/*   G2139 IERS2010 SATIGS SATAPC                           
*  2021  9 23 22 50  0.00000000
P  1 -19605.700364 -10233.254919  14679.781580    558.965735                    
V  1 -10117.697595 -16072.596662 -23941.838292     -0.109865                    
P  2  13232.529069  22158.915210   6744.003312   -633.946152                    
V  2  -7009.224977  -4129.380038  30342.376571     -0.020295                    
P  3 -15583.958046   -762.765159  21376.655209   -299.989458                    
V  3  10188.449535 -25414.113415   6589.332962     -0.135589                    
P  4 -26150.651099  -1036.303484   4744.369360   -204.212211                    
V  4   5751.598843  -3203.012929  30955.115325      0.001711                    
P  5   9614.397734  14580.828781 -20129.785229    -55.399194                    
V  5 -10081.137639  23184.004814  12234.677875     -0.012669                    
P  6   1943.914541  20791.057333  16438.037284     80.368727                    
V  6 -13535.745966 -15764.337568  21670.557924      0.075976                    
P  7 -14837.587338   5224.775320 -21087.982448    250.629225                    
V  7 -16167.731675 -22388.041733   5244.799886      0.068464                    
P  8 -20936.816672  -7387.446699 -14819.671916    -37.576460                    
V  8  18237.471387  -4322.098701 -23321.473790     -0.013773                    
P  9 -24510.376517   8047.964825  -6446.025298   -361.344525                    
V  9  -8417.007503  -1718.338676  30157.394868     -0.003982                    
P 10  11569.382361 -23626.687189  -2146.610689   -209.523103                    
V 10   1420.509882   3735.643325 -31995.425603     -0.079014                    
P 11  10609.952487  23587.548713   6060.610204     19.431007                    
V 11  -6526.447298  -4918.392885  30487.044264      0.017259                    
P 12  15074.085668   2681.062786  21438.105228   -101.688347                    
V 12 -12232.240646  24970.049318   5543.249059     -0.054508                    
P 13  13885.601605  13026.982814 -18726.157569    189.747869                    
V 13 -23414.593054    961.327562 -16677.479511      0.054206                    
P 14 -12623.790258  23252.069842  -1967.452446     -4.931038                    
V 14  -1662.619270  -3565.370189 -31534.148029     -0.079536                    
P 15  21916.147477   5759.572254 -14510.937980   -118.941569                    
V 15 -16616.622022   6625.752865 -22749.246319      0.027506                    
P 16  -4485.886174 -18482.542818 -18590.487824   -395.639341                    
V 16  12318.859227 -19760.183071  17344.915753     -0.063861                    
P 17 -15310.438234  12905.856625  17888.452177    509.105620                    
V 17 -21831.934535    149.416065 -19255.057808      0.056108                    
P 18  13225.291689  -7304.492015 -21859.889751    318.861237                    
V 18  16087.004656  22546.128660   2109.050188     -0.045250                    
P 19  -6100.829431  14325.777104  21221.236444     56.879346                    
V 19 -27563.655882   -225.121810  -7829.899509      0.049742                    
P 20   3165.914290  23516.984254 -12223.300977    518.988102                    
V 20  -6444.191818  14270.205495  25581.864202     -0.001912                    
P 21 -20910.953929 -15062.909425   8193.145881    144.248352                    
V 21  -4568.317028  -8404.602338 -29097.369713      0.019197                    
P 22 -13503.686206  -9122.768365  21171.664222   -505.914181                    
V 22   8308.826405 -25223.423735  -5410.962669      0.092625                    
P 23  16147.118603 -16669.391151 -12873.282897     53.686997                    
V 23  -3927.266527  16002.555255 -25766.167797     -0.048208                    
P 24  21089.972696  12783.303991  10112.941821    240.971031                    
V 24   6425.692529  11830.806335 -27229.415478      0.078479                    
P 25  17243.197201  -8589.874349  17899.391565    213.232895                    
V 25  -7389.122842  22248.606832  17801.238406      0.062517                    
P 26   3088.684701 -25025.907817  -7927.466356    137.501041                    
V 26   6740.451379  -8272.200724  29232.997633      0.041537                    
P 27 -11590.371006 -12629.229653 -20567.141286   -197.039542                    
V 27  25299.471884  -3755.240752 -11697.538679     -0.051955                    
P 28  -8970.277630  24600.871616   5583.635579    495.482301                    
V 28  -4940.977190   4542.833580 -30812.193820     -0.072338                    
P 29  26028.443590  -3848.699160  -3917.999997   -416.204641                    
V 29   4989.703323   1775.666391  31694.236606     -0.056566                    
P 30  -6272.474009  16310.281234 -19868.292520   -475.840615                    
V 30 -16062.734454 -19902.322493 -11463.421236     -0.037266                    
P 31  -2972.566257 -21760.879117  14494.456367   -141.348713                    
V 31  12995.210528  13790.981175  23675.442363     -0.019938                    
P 32  11139.661584 -14910.270914  18995.974015     -3.283940                    
V 32  23943.483177  -1593.198649 -15558.604276     -0.036014                    
EOF
